NORAD_CAT_ID,OBJECT_NAME,OBJECT_TYPE,EPOCH,MEAN_MOTION,ECCENTRICITY,INCLINATION,RA_OF_ASC_NODE,ARG_OF_PERICENTER,MEAN_ANOMALY,BSTAR,MEAN_MOTION_DOT,MEAN_MOTION_DDOT,TLE_LINE0,TLE_LINE1,TLE_LINE2,SEMIMAJOR_AXIS,PERIOD,APOGEE,PERIGEE,DECAYED
49133.0,STARLINK-3077,PAYLOAD,2024-03-28 12:40:49,14.98331961,0.0003064,69.9989,287.5446,275.3326,84.7483,7.1584e-05,7.61e-06,0.0,0 STARLINK-3077,1 49133U 21082D   24088.52834525  .00000761  00000-0  71584-4 0  9992,2 49133  69.9989 287.5446 0003064 275.3326  84.7483 14.98331961139450,6950.187,96.107,574.181,569.922,0.0
49133.0,STARLINK-3077,PAYLOAD,2024-03-28 22:17:37,14.98334481,0.0003021,69.9986,286.5349,271.4668,88.6145,4.7345e-05,4.72e-06,0.0,0 STARLINK-3077,1 49133U 21082D   24088.92890298  .00000472  00000-0  47345-4 0  9992,2 49133  69.9986 286.5349 0003021 271.4668  88.6145 14.98334481139512,6950.179,96.107,574.144,569.944,0.0
49133.0,STARLINK-3077,PAYLOAD,2024-03-29 12:42:49,14.98333462,0.000292,69.9991,285.02,269.3315,90.751,-1.3927e-05,-2.59e-06,0.0,0 STARLINK-3077,1 49133U 21082D   24089.52974388 -.00000259  00000-0 -13927-4 0  9996,2 49133  69.9991 285.0200 0002920 269.3315  90.7510 14.98333462139608,6950.182,96.107,574.077,570.018,0.0
49133.0,STARLINK-3077,PAYLOAD,2024-03-29 22:19:38,14.98332375,0.0002976,69.9989,284.0101,269.2592,90.8226,-2.4925e-05,-3.9e-06,0.0,0 STARLINK-3077,1 49133U 21082D   24089.93030391 -.00000390  00000-0 -24925-4 0  9994,2 49133  69.9989 284.0101 0002976 269.2592  90.8226 14.98332375139664,6950.186,96.107,574.119,569.982,0.0
49133.0,STARLINK-3077,PAYLOAD,2024-03-30 12:44:50,14.98329404,0.0003026,69.9965,282.4943,269.7167,90.3646,-2.19e-05,-3.54e-06,0.0,0 STARLINK-3077,1 49133U 21082D   24090.53114462 -.00000354  00000-0 -21900-4 0  9994,2 49133  69.9965 282.4943 0003026 269.7167  90.3646 14.98329404139754,6950.195,96.107,574.163,569.957,0.0
49133.0,STARLINK-3077,PAYLOAD,2024-03-30 14:20:58,14.98330077,0.0002998,69.9972,282.3258,268.6326,91.4489,-1.325e-05,-2.51e-06,0.0,0 STARLINK-3077,1 49133U 21082D   24090.59790381 -.00000251  00000-0 -13250-4 0  9995,2 49133  69.9972 282.3258 0002998 268.6326  91.4489 14.98330077139768,6950.193,96.107,574.141,569.974,0.0
49133.0,STARLINK-3077,PAYLOAD,2024-03-30 22:21:39,14.98330006,0.0003045,69.9989,281.4852,270.5609,89.5201,-2.2409e-05,-3.6e-06,0.0,0 STARLINK-3077,1 49133U 21082D   24090.93170469 -.00000360  00000-0 -22409-4 0  9999,2 49133  69.9989 281.4852 0003045 270.5609  89.5201 14.98330006139814,6950.193,96.107,574.174,569.942,0.0
49133.0,STARLINK-3077,PAYLOAD,2024-03-31 12:46:51,14.98332897,0.0003165,69.9984,279.9699,271.2404,88.8392,4.9109e-05,4.93e-06,0.0,0 STARLINK-3077,1 49133U 21082D   24091.53253991  .00000493  00000-0  49109-4 0  9999,2 49133  69.9984 279.9699 0003165 271.2404  88.8392 14.98332897139907,6950.184,96.107,574.249,569.849,0.0
49133.0,STARLINK-3077,PAYLOAD,2024-03-31 14:22:59,14.98333274,0.0003162,69.9985,279.8016,271.1872,88.8925,5.2334e-05,5.32e-06,0.0,0 STARLINK-3077,1 49133U 21082D   24091.59929946  .00000532  00000-0  52334-4 0  9993,2 49133  69.9985 279.8016 0003162 271.1872  88.8925 14.98333274139918,6950.183,96.107,574.245,569.85,0.0
49133.0,STARLINK-3077,PAYLOAD,2024-03-31 22:23:39,14.98335899,0.0003131,69.9985,278.9597,270.8229,89.2571,7.8154e-05,8.4e-06,0.0,0 STARLINK-3077,1 49133U 21082D   24091.93309630  .00000840  00000-0  78154-4 0  9993,2 49133  69.9985 278.9597 0003131 270.8229  89.2571 14.98335899139962,6950.175,96.107,574.216,569.864,0.0
49133.0,STARLINK-3077,PAYLOAD,2024-04-01 12:48:48,14.98368743,0.0003434,69.9985,277.4445,272.8478,87.2288,0.00042265,4.959e-05,0.0,0 STARLINK-3077,1 49133U 21082D   24092.53389501  .00004959  00000-0  42265-3 0  9993,2 49133  69.9985 277.4445 0003434 272.8478  87.2288 14.98368743140051,6950.073,96.105,574.325,569.551,0.0
49133.0,STARLINK-3077,PAYLOAD,2024-04-01 14:24:56,14.98367986,0.0003006,69.9985,277.2762,278.4331,81.6487,0.00040565,4.755e-05,0.0,0 STARLINK-3077,1 49133U 21082D   24092.60065504  .00004755  00000-0  40565-3 0  9990,2 49133  69.9985 277.2762 0003006 278.4331  81.6487 14.98367986140064,6950.075,96.105,574.03,569.851,0.0
49133.0,STARLINK-3077,PAYLOAD,2024-04-01 19:13:24,14.98320704,0.0003068,69.9985,276.7713,270.6686,89.4122,-0.00012482,-1.582e-05,0.0,0 STARLINK-3077,1 49133U 21082D   24092.80097609 -.00001582  00000-0 -12482-3 0  9997,2 49133  69.9985 276.7713 0003068 270.6686  89.4122 14.98320704140091,6950.222,96.108,574.219,569.954,0.0
49133.0,STARLINK-3077,PAYLOAD,2024-04-02 12:50:53,14.98323652,0.0003068,69.9985,274.9195,270.8007,89.2801,-0.00016873,-2.105e-05,0.0,0 STARLINK-3077,1 49133U 21082D   24093.53533711 -.00002105  00000-0 -16873-3 0  9997,2 49133  69.9985 274.9195 0003068 270.8007  89.2801 14.98323652140204,6950.213,96.107,574.21,569.945,0.0
49133.0,STARLINK-3077,PAYLOAD,2024-04-02 19:15:25,14.98323475,0.0003087,69.9985,274.2461,270.7552,89.3253,-0.00016375,-2.046e-05,0.0,0 STARLINK-3077,1 49133U 21082D   24093.80237788 -.00002046  00000-0 -16375-3 0  9993,2 49133  69.9985 274.2461 0003087 270.7552  89.3253 14.98323475140247,6950.213,96.107,574.224,569.933,0.0
49133.0,STARLINK-3077,PAYLOAD,2024-04-02 22:27:41,14.98324248,0.0003075,69.9985,273.9094,271.2471,88.8336,-0.00015128,-1.897e-05,0.0,0 STARLINK-3077,1 49133U 21082D   24093.93589720 -.00001897  00000-0 -15128-3 0  9991,2 49133  69.9985 273.9094 0003075 271.2471  88.8336 14.98324248140265,6950.211,96.107,574.213,569.938,0.0
49133.0,STARLINK-3077,PAYLOAD,2024-04-03 12:52:53,14.98313452,0.0003106,69.9984,272.3942,270.9314,89.1489,0.00010437,1.152e-05,0.0,0 STARLINK-3077,1 49133U 21082D   24094.53673323  .00001152  00000-0  10437-3 0  9991,2 49133  69.9984 272.3942 0003106 270.9314  89.1489 14.98313452140354,6950.244,96.108,574.268,569.95,0.0
49133.0,STARLINK-3077,PAYLOAD,2024-04-03 19:17:26,14.98315408,0.0003093,69.9984,271.721,270.3822,89.6983,0.0001186,1.322e-05,0.0,0 STARLINK-3077,1 49133U 21082D   24094.80377450  .00001322  00000-0  11860-3 0  9993,2 49133  69.9984 271.7210 0003093 270.3822  89.6983 14.98315408140399,6950.238,96.108,574.253,569.953,0.0
49133.0,STARLINK-3077,PAYLOAD,2024-04-03 22:29:42,14.9831567,0.0002983,69.9985,271.3842,268.2526,91.8291,0.00012214,1.364e-05,0.0,0 STARLINK-3077,1 49133U 21082D   24094.93729556  .00001364  00000-0  12214-3 0  9995,2 49133  69.9985 271.3842 0002983 268.2526  91.8291 14.98315670140412,6950.237,96.108,574.175,570.029,0.0
49133.0,STARLINK-3077,PAYLOAD,2024-04-04 12:54:54,14.98324047,0.0002928,69.9987,269.8686,270.6713,89.411,0.00015047,1.703e-05,0.0,0 STARLINK-3077,1 49133U 21082D   24095.53813262  .00001703  00000-0  15047-3 0  9994,2 49133  69.9987 269.8686 0002928 270.6713  89.4110 14.98324047140507,6950.211,96.107,574.111,570.041,0.0
49133.0,STARLINK-3077,PAYLOAD,2024-04-04 14:31:02,14.98322514,0.0003007,69.9986,269.7,270.5511,89.5304,0.00014222,1.604e-05,0.0,0 STARLINK-3077,1 49133U 21082D   24095.60489397  .00001604  00000-0  14222-3 0  9994,2 49133  69.9986 269.7000 0003007 270.5511  89.5304 14.98322514140513,6950.216,96.107,574.171,569.991,0.0
49133.0,STARLINK-3077,PAYLOAD,2024-04-04 20:55:35,14.98319433,0.0003065,69.9987,269.027,269.3495,90.7313,8.5833e-05,9.31e-06,0.0,0 STARLINK-3077,1 49133U 21082D   24095.87193891  .00000931  00000-0  85833-4 0  9993,2 49133  69.9987 269.0270 0003065 269.3495  90.7313 14.98319433140551,6950.226,96.108,574.221,569.96,0.0
49133.0,STARLINK-3077,PAYLOAD,2024-04-05 12:56:55,14.98327698,0.0003106,69.9988,267.3439,269.9138,90.1665,8.8888e-05,9.68e-06,0.0,0 STARLINK-3077,1 49133U 21082D   24096.53953573  .00000968  00000-0  88888-4 0  9991,2 49133  69.9988 267.3439 0003106 269.9138  90.1665 14.98327698140653,6950.2,96.107,574.224,569.906,0.0
49133.0,STARLINK-3077,PAYLOAD,2024-04-05 14:33:03,14.98327469,0.0003111,69.9988,267.1756,269.8902,90.19,8.4905e-05,9.2e-06,0.0,0 STARLINK-3077,1 49133U 21082D   24096.60629605  .00000920  00000-0  84905-4 0  9999,2 49133  69.9988 267.1756 0003111 269.8902  90.1900 14.98327469140666,6950.201,96.107,574.228,569.904,0.0
49133.0,STARLINK-3077,PAYLOAD,2024-04-05 20:57:35,14.98331854,0.0003101,69.9987,266.5017,269.2899,90.7905,8.427e-05,9.13e-06,0.0,0 STARLINK-3077,1 49133U 21082D   24096.87333317  .00000913  00000-0  84270-4 0  9997,2 49133  69.9987 266.5017 0003101 269.2899  90.7905 14.98331854140705,6950.187,96.107,574.207,569.897,0.0
49133.0,STARLINK-3077,PAYLOAD,2024-04-06 04:58:16,14.98331396,0.0003115,69.9989,265.6611,270.1545,89.9257,-2.162e-05,-3.51e-06,0.0,0 STARLINK-3077,1 49133U 21082D   24097.20713585 -.00000351  00000-0 -21620-4 0  9992,2 49133  69.9989 265.6611 0003115 270.1545  89.9257 14.98331396140757,6950.189,96.107,574.219,569.889,0.0
49133.0,STARLINK-3077,PAYLOAD,2024-04-06 17:47:21,14.98326332,0.0003118,69.9988,264.314,269.1458,90.9343,1.1892e-05,4.9e-07,0.0,0 STARLINK-3077,1 49133U 21082D   24097.74121821  .00000049  00000-0  11892-4 0  9999,2 49133  69.9988 264.3140 0003118 269.1458  90.9343 14.98326332140834,6950.204,96.107,574.236,569.902,0.0
49133.0,STARLINK-3077,PAYLOAD,2024-04-07 05:00:17,14.98327349,0.0003062,69.999,263.1355,269.3061,90.7747,9.7628e-08,-9.2e-07,0.0,0 STARLINK-3077,1 49133U 21082D   24098.20853891 -.00000092  00000-0  97628-7 0  9993,2 49133  69.9990 263.1355 0003062 269.3061  90.7747 14.98327349140905,6950.201,96.107,574.194,569.938,0.0
49133.0,STARLINK-3077,PAYLOAD,2024-04-07 21:01:38,14.98328657,0.0003051,69.9989,261.4523,269.1999,90.881,-2.3931e-05,-3.79e-06,0.0,0 STARLINK-3077,1 49133U 21082D   24098.87613934 -.00000379  00000-0 -23931-4 0  9990,2 49133  69.9989 261.4523 0003051 269.1999  90.8810 14.98328657141004,6950.197,96.107,574.183,569.942,0.0
49133.0,STARLINK-3077,PAYLOAD,2024-04-08 09:50:42,14.98330699,0.000316,69.9988,260.1059,268.4982,91.5815,5.7061e-05,5.88e-06,0.0,0 STARLINK-3077,1 49133U 21082D   24099.41021575  .00000588  00000-0  57061-4 0  9996,2 49133  69.9988 260.1059 0003160 268.4982  91.5815 14.98330699141088,6950.191,96.107,574.252,569.859,0.0
